[{"OBJECT_NAME":"ONEWEB-0255","OBJECT_ID":"2021-060G","EPOCH":"2025-11-02T10:06:35.478144","MEAN_MOTION":13.16595676,"ECCENTRICITY":0.0002153,"INCLINATION":87.8988,"RA_OF_ASC_NODE":273.9525,"ARG_OF_PERICENTER":88.8856,"MEAN_ANOMALY":271.2522,"EPHEMERIS_TYPE":0,"CLASSIFICATION_TYPE":"U","NORAD_CAT_ID":48973,"ELEMENT_SET_NO":999,"REV_AT_EPOCH":20982,"BSTAR":-2.577e-5,"MEAN_MOTION_DOT":3.0e-8,"MEAN_MOTION_DDOT":0},{"OBJECT_NAME":"ONEWEB-0256","OBJECT_ID":"2021-060H","EPOCH":"2025-11-02T10:44:12.451776","MEAN_MOTION":13.16595844,"ECCENTRICITY":0.0001804,"INCLINATION":87.8981,"RA_OF_ASC_NODE":273.958,"ARG_OF_PERICENTER":84.7166,"MEAN_ANOMALY":275.4171,"EPHEMERIS_TYPE":0,"CLASSIFICATION_TYPE":"U","NORAD_CAT_ID":48974,"ELEMENT_SET_NO":999,"REV_AT_EPOCH":20979,"BSTAR":0.00026654,"MEAN_MOTION_DOT":1.15e-6,"MEAN_MOTION_DDOT":0},{"OBJECT_NAME":"ONEWEB-0257","OBJECT_ID":"2021-060J","EPOCH":"2025-11-02T11:30:57.329280","MEAN_MOTION":13.16595641,"ECCENTRICITY":0.0002028,"INCLINATION":87.8997,"RA_OF_ASC_NODE":273.9253,"ARG_OF_PERICENTER":89.3296,"MEAN_ANOMALY":270.8067,"EPHEMERIS_TYPE":0,"CLASSIFICATION_TYPE":"U","NORAD_CAT_ID":48975,"ELEMENT_SET_NO":999,"REV_AT_EPOCH":20975,"BSTAR":-2.9931e-5,"MEAN_MOTION_DOT":1.0e-8,"MEAN_MOTION_DDOT":0},{"OBJECT_NAME":"ONEWEB-0258","OBJECT_ID":"2021-060K","EPOCH":"2025-11-02T11:33:14.071968","MEAN_MOTION":13.16595589,"ECCENTRICITY":0.0001991,"INCLINATION":87.8986,"RA_OF_ASC_NODE":273.9435,"ARG_OF_PERICENTER":81.9269,"MEAN_ANOMALY":278.2088,"EPHEMERIS_TYPE":0,"CLASSIFICATION_TYPE":"U","NORAD_CAT_ID":48976,"ELEMENT_SET_NO":999,"REV_AT_EPOCH":20976,"BSTAR":-0.00010684,"MEAN_MOTION_DOT":-2.8e-7,"MEAN_MOTION_DDOT":0},{"OBJECT_NAME":"ONEWEB-0259","OBJECT_ID":"2021-060L","EPOCH":"2025-11-02T11:24:07.196256","MEAN_MOTION":13.16596024,"ECCENTRICITY":0.0002101,"INCLINATION":87.8999,"RA_OF_ASC_NODE":273.935,"ARG_OF_PERICENTER":87.1539,"MEAN_ANOMALY":272.9832,"EPHEMERIS_TYPE":0,"CLASSIFICATION_TYPE":"U","NORAD_CAT_ID":48977,"ELEMENT_SET_NO":999,"REV_AT_EPOCH":20979,"BSTAR":-4.4783e-5,"MEAN_MOTION_DOT":-4.0e-8,"MEAN_MOTION_DDOT":0},{"OBJECT_NAME":"ONEWEB-0260","OBJECT_ID":"2021-060M","EPOCH":"2025-11-02T11:11:35.467872","MEAN_MOTION":13.16595866,"ECCENTRICITY":0.0001514,"INCLINATION":87.8985,"RA_OF_ASC_NODE":273.9555,"ARG_OF_PERICENTER":89.4567,"MEAN_ANOMALY":270.6738,"EPHEMERIS_TYPE":0,"CLASSIFICATION_TYPE":"U","NORAD_CAT_ID":48978,"ELEMENT_SET_NO":999,"REV_AT_EPOCH":20977,"BSTAR":6.9456e-5,"MEAN_MOTION_DOT":3.9e-7,"MEAN_MOTION_DDOT":0},{"OBJECT_NAME":"ONEWEB-0261","OBJECT_ID":"2021-060N","EPOCH":"2025-11-02T10:28:16.420224","MEAN_MOTION":13.16592924,"ECCENTRICITY":0.0002103,"INCLINATION":87.8982,"RA_OF_ASC_NODE":273.9634,"ARG_OF_PERICENTER":95.7098,"MEAN_ANOMALY":264.4273,"EPHEMERIS_TYPE":0,"CLASSIFICATION_TYPE":"U","NORAD_CAT_ID":48979,"ELEMENT_SET_NO":999,"REV_AT_EPOCH":20982,"BSTAR":0.00038521,"MEAN_MOTION_DOT":1.6e-6,"MEAN_MOTION_DDOT":0},{"OBJECT_NAME":"ONEWEB-0262","OBJECT_ID":"2021-060P","EPOCH":"2025-11-02T09:59:45.195648","MEAN_MOTION":13.16596054,"ECCENTRICITY":0.0002279,"INCLINATION":87.8992,"RA_OF_ASC_NODE":273.9364,"ARG_OF_PERICENTER":84.3035,"MEAN_ANOMALY":275.8355,"EPHEMERIS_TYPE":0,"CLASSIFICATION_TYPE":"U","NORAD_CAT_ID":48980,"ELEMENT_SET_NO":999,"REV_AT_EPOCH":20978,"BSTAR":-6.9891e-5,"MEAN_MOTION_DOT":-1.4e-7,"MEAN_MOTION_DDOT":0},{"OBJECT_NAME":"ONEWEB-0263","OBJECT_ID":"2021-060Q","EPOCH":"2025-11-02T10:45:22.028832","MEAN_MOTION":13.16595077,"ECCENTRICITY":0.0002192,"INCLINATION":87.8988,"RA_OF_ASC_NODE":273.9477,"ARG_OF_PERICENTER":93.4015,"MEAN_ANOMALY":266.7366,"EPHEMERIS_TYPE":0,"CLASSIFICATION_TYPE":"U","NORAD_CAT_ID":48981,"ELEMENT_SET_NO":999,"REV_AT_EPOCH":20975,"BSTAR":0.0001069,"MEAN_MOTION_DOT":5.4e-7,"MEAN_MOTION_DDOT":0},{"OBJECT_NAME":"ONEWEB-0264","OBJECT_ID":"2021-060R","EPOCH":"2025-11-02T09:49:30.166752","MEAN_MOTION":13.16592788,"ECCENTRICITY":0.0001865,"INCLINATION":87.8986,"RA_OF_ASC_NODE":273.9596,"ARG_OF_PERICENTER":91.414,"MEAN_ANOMALY":268.7205,"EPHEMERIS_TYPE":0,"CLASSIFICATION_TYPE":"U","NORAD_CAT_ID":48982,"ELEMENT_SET_NO":999,"REV_AT_EPOCH":20975,"BSTAR":-0.00021068,"MEAN_MOTION_DOT":-6.8e-7,"MEAN_MOTION_DDOT":0},{"OBJECT_NAME":"ONEWEB-0266","OBJECT_ID":"2021-060T","EPOCH":"2025-11-02T10:20:17.492928","MEAN_MOTION":13.16594522,"ECCENTRICITY":0.0002062,"INCLINATION":87.8997,"RA_OF_ASC_NODE":273.9373,"ARG_OF_PERICENTER":80.8984,"MEAN_ANOMALY":279.238,"EPHEMERIS_TYPE":0,"CLASSIFICATION_TYPE":"U","NORAD_CAT_ID":48984,"ELEMENT_SET_NO":999,"REV_AT_EPOCH":20974,"BSTAR":0.00014927,"MEAN_MOTION_DOT":7.0e-7,"MEAN_MOTION_DDOT":0},{"OBJECT_NAME":"ONEWEB-0267","OBJECT_ID":"2021-060U","EPOCH":"2025-11-02T10:36:14.797152","MEAN_MOTION":13.16593269,"ECCENTRICITY":0.0001968,"INCLINATION":87.899,"RA_OF_ASC_NODE":273.9359,"ARG_OF_PERICENTER":91.6466,"MEAN_ANOMALY":268.489,"EPHEMERIS_TYPE":0,"CLASSIFICATION_TYPE":"U","NORAD_CAT_ID":48985,"ELEMENT_SET_NO":999,"REV_AT_EPOCH":20975,"BSTAR":0.00034733,"MEAN_MOTION_DOT":1.46e-6,"MEAN_MOTION_DDOT":0},{"OBJECT_NAME":"ONEWEB-0268","OBJECT_ID":"2021-060V","EPOCH":"2025-11-02T11:40:03.321120","MEAN_MOTION":13.16594638,"ECCENTRICITY":0.0001875,"INCLINATION":87.8997,"RA_OF_ASC_NODE":273.9343,"ARG_OF_PERICENTER":85.2974,"MEAN_ANOMALY":274.8371,"EPHEMERIS_TYPE":0,"CLASSIFICATION_TYPE":"U","NORAD_CAT_ID":48986,"ELEMENT_SET_NO":999,"REV_AT_EPOCH":21002,"BSTAR":-0.00081779,"MEAN_MOTION_DOT":-3.0e-6,"MEAN_MOTION_DDOT":0},{"OBJECT_NAME":"ONEWEB-0269","OBJECT_ID":"2021-060W","EPOCH":"2025-11-02T11:12:43.060320","MEAN_MOTION":13.1659317,"ECCENTRICITY":0.0001726,"INCLINATION":87.8987,"RA_OF_ASC_NODE":273.9639,"ARG_OF_PERICENTER":81.6308,"MEAN_ANOMALY":278.5019,"EPHEMERIS_TYPE":0,"CLASSIFICATION_TYPE":"U","NORAD_CAT_ID":48987,"ELEMENT_SET_NO":999,"REV_AT_EPOCH":20979,"BSTAR":0.00017901,"MEAN_MOTION_DOT":8.1e-7,"MEAN_MOTION_DDOT":0},{"OBJECT_NAME":"ONEWEB-0270","OBJECT_ID":"2021-060X","EPOCH":"2025-11-02T09:48:21.648960","MEAN_MOTION":13.16593367,"ECCENTRICITY":0.0002337,"INCLINATION":87.8993,"RA_OF_ASC_NODE":273.9513,"ARG_OF_PERICENTER":90.4245,"MEAN_ANOMALY":269.7153,"EPHEMERIS_TYPE":0,"CLASSIFICATION_TYPE":"U","NORAD_CAT_ID":48988,"ELEMENT_SET_NO":999,"REV_AT_EPOCH":20982,"BSTAR":-6.2364e-5,"MEAN_MOTION_DOT":-1.1e-7,"MEAN_MOTION_DDOT":0},{"OBJECT_NAME":"ONEWEB-0271","OBJECT_ID":"2021-060Y","EPOCH":"2025-11-02T11:19:32.561760","MEAN_MOTION":13.16596347,"ECCENTRICITY":0.0002007,"INCLINATION":87.9007,"RA_OF_ASC_NODE":273.9245,"ARG_OF_PERICENTER":91.9545,"MEAN_ANOMALY":268.1816,"EPHEMERIS_TYPE":0,"CLASSIFICATION_TYPE":"U","NORAD_CAT_ID":48989,"ELEMENT_SET_NO":999,"REV_AT_EPOCH":20983,"BSTAR":5.2657e-5,"MEAN_MOTION_DOT":3.3e-7,"MEAN_MOTION_DDOT":0},{"OBJECT_NAME":"ONEWEB-0272","OBJECT_ID":"2021-060Z","EPOCH":"2025-11-02T10:02:01.713696","MEAN_MOTION":13.16596393,"ECCENTRICITY":0.0001891,"INCLINATION":87.8983,"RA_OF_ASC_NODE":273.9576,"ARG_OF_PERICENTER":92.9956,"MEAN_ANOMALY":267.1391,"EPHEMERIS_TYPE":0,"CLASSIFICATION_TYPE":"U","NORAD_CAT_ID":48990,"ELEMENT_SET_NO":999,"REV_AT_EPOCH":20977,"BSTAR":-1.6762e-5,"MEAN_MOTION_DOT":6.0e-8,"MEAN_MOTION_DDOT":0}]
