ONEWEB-0255             
1 48973U 21060G   25306.42124396  .00000003  00000+0 -25770-4 0  9995
2 48973  87.8988 273.9525 0002153  88.8856 271.2522 13.16595676209829
ONEWEB-0256             
1 48974U 21060H   25306.44736634  .00000115  00000+0  26654-3 0  9996
2 48974  87.8981 273.9580 0001804  84.7166 275.4171 13.16595844209794
ONEWEB-0257             
1 48975U 21060J   25306.47983020  .00000001  00000+0 -29931-4 0  9990
2 48975  87.8997 273.9253 0002028  89.3296 270.8067 13.16595641209757
ONEWEB-0258             
1 48976U 21060K   25306.48141287 -.00000028  00000+0 -10684-3 0  9997
2 48976  87.8986 273.9435 0001991  81.9269 278.2088 13.16595589209761
ONEWEB-0259             
1 48977U 21060L   25306.47508329 -.00000004  00000+0 -44783-4 0  9993
2 48977  87.8999 273.9350 0002101  87.1539 272.9832 13.16596024209790
ONEWEB-0260             
1 48978U 21060M   25306.46638273  .00000039  00000+0  69456-4 0  9995
2 48978  87.8985 273.9555 0001514  89.4567 270.6738 13.16595866209777
ONEWEB-0261             
1 48979U 21060N   25306.43630116  .00000160  00000+0  38521-3 0  9994
2 48979  87.8982 273.9634 0002103  95.7098 264.4273 13.16592924209820
ONEWEB-0262             
1 48980U 21060P   25306.41649532 -.00000014  00000+0 -69891-4 0  9991
2 48980  87.8992 273.9364 0002279  84.3035 275.8355 13.16596054209782
ONEWEB-0263             
1 48981U 21060Q   25306.44817163  .00000054  00000+0  10690-3 0  9996
2 48981  87.8988 273.9477 0002192  93.4015 266.7366 13.16595077209758
ONEWEB-0264             
1 48982U 21060R   25306.40937693 -.00000068  00000+0 -21068-3 0  9992
2 48982  87.8986 273.9596 0001865  91.4140 268.7205 13.16592788209752
ONEWEB-0266             
1 48984U 21060T   25306.43075802  .00000070  00000+0  14927-3 0  9999
2 48984  87.8997 273.9373 0002062  80.8984 279.2380 13.16594522209745
ONEWEB-0267             
1 48985U 21060U   25306.44183793  .00000146  00000+0  34733-3 0  9991
2 48985  87.8990 273.9359 0001968  91.6466 268.4890 13.16593269209756
ONEWEB-0268             
1 48986U 21060V   25306.48614955 -.00000300  00000+0 -81779-3 0  9991
2 48986  87.8997 273.9343 0001875  85.2974 274.8371 13.16594638210025
ONEWEB-0269             
1 48987U 21060W   25306.46716505  .00000081  00000+0  17901-3 0  9994
2 48987  87.8987 273.9639 0001726  81.6308 278.5019 13.16593170209791
ONEWEB-0270             
1 48988U 21060X   25306.40858390 -.00000011  00000+0 -62364-4 0  9997
2 48988  87.8993 273.9513 0002337  90.4245 269.7153 13.16593367209820
ONEWEB-0271             
1 48989U 21060Y   25306.47190465  .00000033  00000+0  52657-4 0  9993
2 48989  87.9007 273.9245 0002007  91.9545 268.1816 13.16596347209834
ONEWEB-0272             
1 48990U 21060Z   25306.41807539  .00000006  00000+0 -16762-4 0  9994
2 48990  87.8983 273.9576 0001891  92.9956 267.1391 13.16596393209773
